{
  "norad_id": 60401,
  "name": "STARLINK-11232 [DTC]",
  "history": [
    {
      "epoch": "2026-03-28T03:14:53.422656Z",
      "apogee_km": 360.61577049449807,
      "perigee_km": 359.006883193013,
      "latitude_deg": 3.8228600384639425e-05,
      "longitude_deg": 120.7799007282816,
      "height_km": 360.762539822475,
      "semi_major_axis_km": 6737.948326843755,
      "eccentricity": 0.00011939,
      "inclination_deg": 53.1597,
      "raan_deg": 355.0626,
      "arg_perigee_deg": 92.6883,
      "mean_anomaly_deg": 267.4272,
      "mean_motion_rev_day": 15.69680445
    }
  ]
}